NORAD_CAT_ID,OBJECT_NAME,OBJECT_TYPE,EPOCH,MEAN_MOTION,ECCENTRICITY,INCLINATION,RA_OF_ASC_NODE,ARG_OF_PERICENTER,MEAN_ANOMALY,BSTAR,MEAN_MOTION_DOT,MEAN_MOTION_DDOT,TLE_LINE0,TLE_LINE1,TLE_LINE2,SEMIMAJOR_AXIS,PERIOD,APOGEE,PERIGEE,DECAYED
53012.0,STARLINK-4271,PAYLOAD,2024-08-10 03:52:38,15.088439,0.0001598,53.2162,162.2591,93.6474,266.4701,-4.7436e-06,-3.64e-06,0.0,0 STARLINK-4271,1 53012U 22076AC  24223.16156160 -.00000364  00000-0 -47436-5 0  9991,2 53012  53.2162 162.2591 0001598  93.6474 266.4701 15.08843900116286,6917.868,95.437,540.839,538.628,0.0
53012.0,STARLINK-4271,PAYLOAD,2024-08-10 19:46:30,15.08839653,0.0001806,53.2165,159.2845,104.583,255.5363,0.00010905,1.448e-05,0.0,0 STARLINK-4271,1 53012U 22076AC  24223.82396594  .00001448  00000-0  10905-3 0  9992,2 53012  53.2165 159.2845 0001806 104.5830 255.5363 15.08839653115919,6917.881,95.438,540.996,538.497,0.0
53012.0,STARLINK-4271,PAYLOAD,2024-08-11 13:15:45,15.08836188,0.000207,53.2153,156.012,87.7041,272.4188,5.4732e-05,5.83e-06,0.0,0 STARLINK-4271,1 53012U 22076AC  24224.55260841  .00000583  00000-0  54732-4 0  9994,2 53012  53.2153 156.0120 0002070  87.7041 272.4188 15.08836188116494,6917.892,95.438,541.189,538.325,0.0
53012.0,STARLINK-4271,PAYLOAD,2024-08-11 22:48:04,15.08838413,0.0001545,53.2156,154.2308,75.2238,284.8925,0.00013963,1.935e-05,0.0,0 STARLINK-4271,1 53012U 22076AC  24224.95004806  .00001935  00000-0  13963-3 0  9997,2 53012  53.2156 154.2308 0001545  75.2238 284.8925 15.08838413116085,6917.885,95.438,540.819,538.681,0.0
53012.0,STARLINK-4271,PAYLOAD,2024-08-12 05:09:35,15.08860286,0.00015,53.2156,153.0353,89.4521,270.6643,0.00056341,8.695e-05,0.0,0 STARLINK-4271,1 53012U 22076AC  24225.21499696  .00008695  00000-0  56341-3 0  9999,2 53012  53.2156 153.0353 0001500  89.4521 270.6643 15.08860286116594,6917.818,95.436,540.721,538.646,0.0
53012.0,STARLINK-4271,PAYLOAD,2024-08-12 19:28:03,15.08859601,0.0001723,53.2154,150.3559,96.4799,263.639,0.00030557,4.581e-05,0.0,0 STARLINK-4271,1 53012U 22076AC  24225.81115246  .00004581  00000-0  30557-3 0  9992,2 53012  53.2154 150.3559 0001723  96.4799 263.6390 15.08859601116682,6917.82,95.436,540.877,538.494,0.0
53012.0,STARLINK-4271,PAYLOAD,2024-08-12 22:38:49,15.08864989,0.0001361,53.2157,149.7677,89.9448,270.17,0.00035946,5.441e-05,0.0,0 STARLINK-4271,1 53012U 22076AC  24225.94362820  .00005441  00000-0  35946-3 0  9991,2 53012  53.2157 149.7677 0001361  89.9448 270.1700 15.08864989116238,6917.804,95.436,540.611,538.727,0.0
53012.0,STARLINK-4271,PAYLOAD,2024-08-13 05:00:23,15.08796858,0.000165,53.2152,148.5789,90.6926,269.4255,-0.0011126,-0.00017931,0.0,0 STARLINK-4271,1 53012U 22076AC  24226.20861099 -.00017931  00000-0 -11126-2 0  9995,2 53012  53.2152 148.5789 0001650  90.6926 269.4255 15.08796858116746,6918.012,95.44,541.019,538.736,0.0
53012.0,STARLINK-4271,PAYLOAD,2024-08-13 11:21:57,15.08784062,0.0001473,53.2155,147.3875,86.5729,273.5432,-0.0011159,-0.00017976,0.0,0 STARLINK-4271,1 53012U 22076AC  24226.47358268 -.00017976  00000-0 -11159-2 0  9998,2 53012  53.2155 147.3875 0001473  86.5729 273.5432 15.08784062116310,6918.051,95.441,540.935,538.897,0.0
53012.0,STARLINK-4271,PAYLOAD,2024-08-13 22:29:38,15.08834306,0.0002482,53.2156,145.3063,129.6821,230.4391,0.00030358,4.546e-05,0.0,0 STARLINK-4271,1 53012U 22076AC  24226.93725670  .00004546  00000-0  30358-3 0  9994,2 53012  53.2156 145.3063 0002482 129.6821 230.4391 15.08834306116381,6917.898,95.438,541.48,538.046,0.0
53012.0,STARLINK-4271,PAYLOAD,2024-08-14 01:40:24,15.08853727,0.0001258,53.2154,144.7125,83.4955,276.618,0.00086408,0.00013496,0.0,0 STARLINK-4271,1 53012U 22076AC  24227.06973355  .00013496  00000-0  86408-3 0  9995,2 53012  53.2154 144.7125 0001258  83.4955 276.6180 15.08853727116876,6917.838,95.437,540.574,538.833,0.0
53012.0,STARLINK-4271,PAYLOAD,2024-08-14 11:12:44,15.08847128,0.0001226,53.2146,142.9289,80.5464,279.5666,0.00079536,0.00012395,0.0,0 STARLINK-4271,1 53012U 22076AC  24227.46717714  .00012395  00000-0  79536-3 0  9995,2 53012  53.2146 142.9289 0001226  80.5464 279.5666 15.08847128116932,6917.859,95.437,540.572,538.875,0.0
53012.0,STARLINK-4271,PAYLOAD,2024-08-14 22:20:26,15.08848136,0.0001408,53.2159,140.8525,105.4854,254.6293,0.00063327,9.807e-05,0.0,0 STARLINK-4271,1 53012U 22076AC  24227.93085803  .00009807  00000-0  63327-3 0  9999,2 53012  53.2159 140.8525 0001408 105.4854 254.6293 15.08848136116534,6917.856,95.437,540.695,538.746,0.0
53012.0,STARLINK-4271,PAYLOAD,2024-08-15 11:03:30,15.08851295,0.0001073,53.215,138.4679,80.1022,280.0091,0.00061318,9.487e-05,0.0,0 STARLINK-4271,1 53012U 22076AC  24228.46077196  .00009487  00000-0  61318-3 0  9996,2 53012  53.2150 138.4679 0001073  80.1022 280.0091 15.08851295116610,6917.846,95.437,540.453,538.969,0.0
53012.0,STARLINK-4271,PAYLOAD,2024-08-15 22:11:13,15.08831724,0.0001145,53.2153,136.3853,72.6227,287.489,-0.00010761,-2e-05,0.0,0 STARLINK-4271,1 53012U 22076AC  24228.92445782 -.00002000  00000-0 -10761-3 0  9999,2 53012  53.2153 136.3853 0001145  72.6227 287.4890 15.08831724116687,6917.906,95.438,540.563,538.979,0.0
53012.0,STARLINK-4271,PAYLOAD,2024-08-16 01:21:58,15.08849252,0.0001099,53.2154,135.7901,91.7834,268.3284,-9.6504e-06,-4.41e-06,0.0,0 STARLINK-4271,1 53012U 22076AC  24229.05693162 -.00000441  00000-0 -96504-5 0  9999,2 53012  53.2154 135.7901 0001099  91.7834 268.3284 15.08849252117174,6917.852,95.437,540.477,538.957,0.0
53012.0,STARLINK-4271,PAYLOAD,2024-08-17 02:48:08,15.08858424,0.0001231,53.2152,131.0317,82.987,277.1262,0.00026852,3.99e-05,0.0,0 STARLINK-4271,1 53012U 22076AC  24230.11676565  .00003990  00000-0  26852-3 0  9993,2 53012  53.2152 131.0317 0001231  82.9870 277.1262 15.08858424117335,6917.824,95.436,540.541,538.837,0.0
53012.0,STARLINK-4271,PAYLOAD,2024-08-17 17:06:37,15.0883582,0.0001549,53.2148,128.3584,84.8104,275.3065,0.00010849,1.439e-05,0.0,0 STARLINK-4271,1 53012U 22076AC  24230.71293933  .00001439  00000-0  10849-3 0  9998,2 53012  53.2148 128.3584 0001549  84.8104 275.3065 15.08835820117424,6917.893,95.438,540.83,538.687,0.0
53012.0,STARLINK-4271,PAYLOAD,2024-08-17 21:52:46,15.08837971,0.0001822,53.2149,127.4635,126.2688,233.8472,0.00011388,1.525e-05,0.0,0 STARLINK-4271,1 53012U 22076AC  24230.91165482  .00001525  00000-0  11388-3 0  9992,2 53012  53.2149 127.4635 0001822 126.2688 233.8472 15.08837971116984,6917.887,95.438,541.012,538.491,0.0
53012.0,STARLINK-4271,PAYLOAD,2024-08-17 23:28:10,15.08836911,0.0001302,53.2154,127.1697,81.2783,278.8356,0.00011505,1.543e-05,0.0,0 STARLINK-4271,1 53012U 22076AC  24230.97789836  .00001543  00000-0  11505-3 0  9994,2 53012  53.2154 127.1697 0001302  81.2783 278.8356 15.08836911116998,6917.89,95.438,540.656,538.854,0.0
53012.0,STARLINK-4271,PAYLOAD,2024-08-18 20:08:10,15.08857957,0.0001348,53.2157,123.3018,119.4936,240.619,0.00039585,6.021e-05,0.0,0 STARLINK-4271,1 53012U 22076AC  24231.83900828  .00006021  00000-0  39585-3 0  9990,2 53012  53.2157 123.3018 0001348 119.4936 240.6190 15.08857957117593,6917.826,95.436,540.623,538.758,0.0
53012.0,STARLINK-4271,PAYLOAD,2024-08-18 21:43:33,15.08863145,0.0001344,53.2158,123.0062,71.4007,288.7131,0.0006313,9.78e-05,0.0,0 STARLINK-4271,1 53012U 22076AC  24231.90524965  .00009780  00000-0  63130-3 0  9990,2 53012  53.2158 123.0062 0001344  71.4007 288.7131 15.08863145117136,6917.81,95.436,540.604,538.745,0.0
53012.0,STARLINK-4271,PAYLOAD,2024-08-18 23:18:56,15.08866527,0.0001312,53.2158,122.7082,83.2531,276.8611,0.00090302,0.00014123,0.0,0 STARLINK-4271,1 53012U 22076AC  24231.97148925  .00014123  00000-0  90302-3 0  9993,2 53012  53.2158 122.7082 0001312  83.2531 276.8611 15.08866527117613,6917.799,95.436,540.572,538.757,0.0
53012.0,STARLINK-4271,PAYLOAD,2024-08-20 02:20:30,15.08837959,0.0001399,53.2165,117.6529,96.9042,263.211,0.00026115,3.87e-05,0.0,0 STARLINK-4271,1 53012U 22076AC  24233.09757500  .00003870  00000-0  26115-3 0  9991,2 53012  53.2165 117.6529 0001399  96.9042 263.2110 15.08837959117782,6917.887,95.438,540.719,538.784,0.0
53012.0,STARLINK-4271,PAYLOAD,2024-08-20 21:25:08,15.08843771,0.0001473,53.2166,114.0851,78.2309,281.8848,0.00021188,3.086e-05,0.0,0 STARLINK-4271,1 53012U 22076AC  24233.89245646  .00003086  00000-0  21188-3 0  9996,2 53012  53.2166 114.0851 0001473  78.2309 281.8848 15.08843771117439,6917.869,95.437,540.753,538.715,0.0
53012.0,STARLINK-4271,PAYLOAD,2024-08-21 19:40:32,15.08841499,0.0001467,53.2162,109.9211,97.5282,262.5876,0.00023978,3.53e-05,0.0,0 STARLINK-4271,1 53012U 22076AC  24234.81981948  .00003530  00000-0  23978-3 0  9994,2 53012  53.2162 109.9211 0001467  97.5282 262.5876 15.08841499117572,6917.876,95.437,540.756,538.726,0.0
53012.0,STARLINK-4271,PAYLOAD,2024-08-21 22:51:18,15.08842613,0.0001367,53.2155,109.3261,103.383,256.7314,0.00025944,3.844e-05,0.0,0 STARLINK-4271,1 53012U 22076AC  24234.95229885  .00003844  00000-0  25944-3 0  9997,2 53012  53.2155 109.3261 0001367 103.3830 256.7314 15.08842613118063,6917.872,95.437,540.683,538.792,0.0
